FLOCK 4G-23             
1 62647U 25009AQ  26201.76951529  .00028303  00000+0  83257-3 0  9999
2 62647  97.3913 283.4720 0003545 160.3251 199.8130 15.35043021 84074
FLOCK 4G-34             
1 62650U 25009AT  26201.94764992  .00007016  00000+0  24537-3 0  9993
2 62650  97.3954 283.3696 0002808 150.4460 209.6940 15.29843366 84079
FLOCK 4G-21             
1 62651U 25009AU  26201.78957811  .00023900  00000+0  74805-3 0  9993
2 62651  97.3977 284.2448 0003643 175.9416 184.1857 15.33109173 84105
FLOCK 4G-31             
1 62652U 25009AV  26201.78203218  .00006437  00000+0  22672-3 0  9990
2 62652  97.3958 283.1755 0002389 148.6011 211.5373 15.29645575 84045
FLOCK 4G-4              
1 62659U 25009BC  26201.94075411  .00028479  00000+0  91029-3 0  9999
2 62659  97.3930 283.1664 0005204 174.3357 185.7945 15.32394864141675
FLOCK 4G-6              
1 62660U 25009BD  26201.76976953  .00005935  00000+0  20677-3 0  9995
2 62660  97.3929 283.0165 0003514 182.4281 177.6943 15.30035666141632
FLOCK 4G-2              
1 62661U 25009BE  26201.76207630  .00006548  00000+0  22534-3 0  9990
2 62661  97.3998 283.6591 0004306 182.4520 177.6700 15.30394401141663
FLOCK 4G-5              
1 62663U 25009BG  26201.95098430  .00006873  00000+0  23224-3 0  9997
2 62663  97.4017 284.2535 0003998 164.4468 195.6896 15.30969750 84106
FLOCK 4G-1              
1 62666U 25009BK  26201.94364566  .00008269  00000+0  28497-3 0  9993
2 62666  97.4010 283.8187 0004594 179.2344 180.8905 15.30262340 84074
FLOCK 4G-14             
1 62667U 25009BL  26201.78022080  .00006683  00000+0  23411-3 0  9997
2 62667  97.4013 283.4489 0004770 175.0835 185.0453 15.29803057 84039
FLOCK 4G-10             
1 62670U 25009BP  26201.85616778  .00007235  00000+0  25241-3 0  9999
2 62670  97.3911 282.8152 0004324 190.5399 169.5751 15.29906971141683
FLOCK 4G-36             
1 62675U 25009BU  26201.91619403  .00007722  00000+0  26938-3 0  9994
2 62675  97.4002 283.5056 0004894 179.9426 180.1816 15.29884209 84052
FLOCK 4G-15             
1 62678U 25009BX  26201.85738177  .00012979  00000+0  44927-3 0  9998
2 62678  97.4005 283.5912 0004956 177.4365 182.6902 15.29987996141697
FLOCK 4G-30             
1 62679U 25009BY  26201.45935894  .00023770  00000+0  71897-3 0  9997
2 62679  97.3899 282.7422 0004828 181.3644 178.7586 15.34192892141645
FLOCK 4G-18             
1 62680U 25009BZ  26201.74096330  .00023182  00000+0  74061-3 0  9997
2 62680  97.3995 283.4122 0006711 192.0727 168.0355 15.32444320141676
FLOCK 4G-17             
1 62681U 25009CA  26201.94849909  .00007471  00000+0  25859-3 0  9992
2 62681  97.3910 283.1467 0004648 192.3835 167.7292 15.30155173141717
