{"fetched_at":"2026-07-21T07:06:30.167Z","source":"https://celestrak.org/NORAD/elements/gp.php?GROUP=planet&FORMAT=JSON","constellation":"superdove","records":[{"OBJECT_NAME":"FLOCK 4G-23","OBJECT_ID":"2025-009AQ","EPOCH":"2026-07-20T18:28:06.121056","CLASSIFICATION_TYPE":"U","MEAN_MOTION":15.35043021,"ECCENTRICITY":0.00035457,"INCLINATION":97.3913,"RA_OF_ASC_NODE":283.472,"ARG_OF_PERICENTER":160.3251,"MEAN_ANOMALY":199.813,"EPHEMERIS_TYPE":0,"NORAD_CAT_ID":62647,"ELEMENT_SET_NO":999,"REV_AT_EPOCH":8407,"BSTAR":0.00083257151,"MEAN_MOTION_DOT":0.00028303,"MEAN_MOTION_DDOT":0},{"OBJECT_NAME":"FLOCK 4G-34","OBJECT_ID":"2025-009AT","EPOCH":"2026-07-20T22:44:36.953088","CLASSIFICATION_TYPE":"U","MEAN_MOTION":15.29843366,"ECCENTRICITY":0.00028083,"INCLINATION":97.3954,"RA_OF_ASC_NODE":283.3696,"ARG_OF_PERICENTER":150.446,"MEAN_ANOMALY":209.694,"EPHEMERIS_TYPE":0,"NORAD_CAT_ID":62650,"ELEMENT_SET_NO":999,"REV_AT_EPOCH":8407,"BSTAR":0.00024536925,"MEAN_MOTION_DOT":0.00007016,"MEAN_MOTION_DDOT":0},{"OBJECT_NAME":"FLOCK 4G-21","OBJECT_ID":"2025-009AU","EPOCH":"2026-07-20T18:56:59.548704","CLASSIFICATION_TYPE":"U","MEAN_MOTION":15.33109173,"ECCENTRICITY":0.00036438,"INCLINATION":97.3977,"RA_OF_ASC_NODE":284.2448,"ARG_OF_PERICENTER":175.9416,"MEAN_ANOMALY":184.1857,"EPHEMERIS_TYPE":0,"NORAD_CAT_ID":62651,"ELEMENT_SET_NO":999,"REV_AT_EPOCH":8410,"BSTAR":0.00074805409,"MEAN_MOTION_DOT":0.000239,"MEAN_MOTION_DDOT":0},{"OBJECT_NAME":"FLOCK 4G-31","OBJECT_ID":"2025-009AV","EPOCH":"2026-07-20T18:46:07.580352","CLASSIFICATION_TYPE":"U","MEAN_MOTION":15.29645575,"ECCENTRICITY":0.00023895,"INCLINATION":97.3958,"RA_OF_ASC_NODE":283.1755,"ARG_OF_PERICENTER":148.6011,"MEAN_ANOMALY":211.5373,"EPHEMERIS_TYPE":0,"NORAD_CAT_ID":62652,"ELEMENT_SET_NO":999,"REV_AT_EPOCH":8404,"BSTAR":0.00022671711,"MEAN_MOTION_DOT":0.00006437,"MEAN_MOTION_DDOT":0},{"OBJECT_NAME":"FLOCK 4G-4","OBJECT_ID":"2025-009BC","EPOCH":"2026-07-20T22:34:41.155104","CLASSIFICATION_TYPE":"U","MEAN_MOTION":15.32394864,"ECCENTRICITY":0.00052041,"INCLINATION":97.393,"RA_OF_ASC_NODE":283.1664,"ARG_OF_PERICENTER":174.3357,"MEAN_ANOMALY":185.7945,"EPHEMERIS_TYPE":0,"NORAD_CAT_ID":62659,"ELEMENT_SET_NO":999,"REV_AT_EPOCH":14167,"BSTAR":0.00091028561,"MEAN_MOTION_DOT":0.00028479,"MEAN_MOTION_DDOT":0},{"OBJECT_NAME":"FLOCK 4G-6","OBJECT_ID":"2025-009BD","EPOCH":"2026-07-20T18:28:28.087392","CLASSIFICATION_TYPE":"U","MEAN_MOTION":15.30035666,"ECCENTRICITY":0.00035141,"INCLINATION":97.3929,"RA_OF_ASC_NODE":283.0165,"ARG_OF_PERICENTER":182.4281,"MEAN_ANOMALY":177.6943,"EPHEMERIS_TYPE":0,"NORAD_CAT_ID":62660,"ELEMENT_SET_NO":999,"REV_AT_EPOCH":14163,"BSTAR":0.00020677493,"MEAN_MOTION_DOT":0.00005935,"MEAN_MOTION_DDOT":0},{"OBJECT_NAME":"FLOCK 4G-2","OBJECT_ID":"2025-009BE","EPOCH":"2026-07-20T18:17:23.392320","CLASSIFICATION_TYPE":"U","MEAN_MOTION":15.30394401,"ECCENTRICITY":0.00043064,"INCLINATION":97.3998,"RA_OF_ASC_NODE":283.6591,"ARG_OF_PERICENTER":182.452,"MEAN_ANOMALY":177.67,"EPHEMERIS_TYPE":0,"NORAD_CAT_ID":62661,"ELEMENT_SET_NO":999,"REV_AT_EPOCH":14166,"BSTAR":0.00022533679,"MEAN_MOTION_DOT":0.00006548,"MEAN_MOTION_DDOT":0},{"OBJECT_NAME":"FLOCK 4G-5","OBJECT_ID":"2025-009BG","EPOCH":"2026-07-20T22:49:25.043520","CLASSIFICATION_TYPE":"U","MEAN_MOTION":15.3096975,"ECCENTRICITY":0.00039983,"INCLINATION":97.4017,"RA_OF_ASC_NODE":284.2535,"ARG_OF_PERICENTER":164.4468,"MEAN_ANOMALY":195.6896,"EPHEMERIS_TYPE":0,"NORAD_CAT_ID":62663,"ELEMENT_SET_NO":999,"REV_AT_EPOCH":8410,"BSTAR":0.00023223712,"MEAN_MOTION_DOT":0.00006873,"MEAN_MOTION_DDOT":0},{"OBJECT_NAME":"FLOCK 4G-1","OBJECT_ID":"2025-009BK","EPOCH":"2026-07-20T22:38:50.985024","CLASSIFICATION_TYPE":"U","MEAN_MOTION":15.3026234,"ECCENTRICITY":0.00045948,"INCLINATION":97.401,"RA_OF_ASC_NODE":283.8187,"ARG_OF_PERICENTER":179.2344,"MEAN_ANOMALY":180.8905,"EPHEMERIS_TYPE":0,"NORAD_CAT_ID":62666,"ELEMENT_SET_NO":999,"REV_AT_EPOCH":8407,"BSTAR":0.00028497177,"MEAN_MOTION_DOT":0.00008269,"MEAN_MOTION_DDOT":0},{"OBJECT_NAME":"FLOCK 4G-14","OBJECT_ID":"2025-009BL","EPOCH":"2026-07-20T18:43:31.077120","CLASSIFICATION_TYPE":"U","MEAN_MOTION":15.29803057,"ECCENTRICITY":0.00047706,"INCLINATION":97.4013,"RA_OF_ASC_NODE":283.4489,"ARG_OF_PERICENTER":175.0835,"MEAN_ANOMALY":185.0453,"EPHEMERIS_TYPE":0,"NORAD_CAT_ID":62667,"ELEMENT_SET_NO":999,"REV_AT_EPOCH":8403,"BSTAR":0.00023411241,"MEAN_MOTION_DOT":0.00006683,"MEAN_MOTION_DDOT":0},{"OBJECT_NAME":"FLOCK 4G-10","OBJECT_ID":"2025-009BP","EPOCH":"2026-07-20T20:32:52.896192","CLASSIFICATION_TYPE":"U","MEAN_MOTION":15.29906971,"ECCENTRICITY":0.00043242,"INCLINATION":97.3911,"RA_OF_ASC_NODE":282.8152,"ARG_OF_PERICENTER":190.5399,"MEAN_ANOMALY":169.5751,"EPHEMERIS_TYPE":0,"NORAD_CAT_ID":62670,"ELEMENT_SET_NO":999,"REV_AT_EPOCH":14168,"BSTAR":0.00025240853,"MEAN_MOTION_DOT":0.00007235,"MEAN_MOTION_DDOT":0},{"OBJECT_NAME":"FLOCK 4G-36","OBJECT_ID":"2025-009BU","EPOCH":"2026-07-20T21:59:19.164192","CLASSIFICATION_TYPE":"U","MEAN_MOTION":15.29884209,"ECCENTRICITY":0.00048946,"INCLINATION":97.4002,"RA_OF_ASC_NODE":283.5056,"ARG_OF_PERICENTER":179.9426,"MEAN_ANOMALY":180.1816,"EPHEMERIS_TYPE":0,"NORAD_CAT_ID":62675,"ELEMENT_SET_NO":999,"REV_AT_EPOCH":8405,"BSTAR":0.00026937665,"MEAN_MOTION_DOT":0.00007722,"MEAN_MOTION_DDOT":0},{"OBJECT_NAME":"FLOCK 4G-15","OBJECT_ID":"2025-009BX","EPOCH":"2026-07-20T20:34:37.784928","CLASSIFICATION_TYPE":"U","MEAN_MOTION":15.29987996,"ECCENTRICITY":0.00049562,"INCLINATION":97.4005,"RA_OF_ASC_NODE":283.5912,"ARG_OF_PERICENTER":177.4365,"MEAN_ANOMALY":182.6902,"EPHEMERIS_TYPE":0,"NORAD_CAT_ID":62678,"ELEMENT_SET_NO":999,"REV_AT_EPOCH":14169,"BSTAR":0.00044927206,"MEAN_MOTION_DOT":0.00012979,"MEAN_MOTION_DDOT":0},{"OBJECT_NAME":"FLOCK 4G-30","OBJECT_ID":"2025-009BY","EPOCH":"2026-07-20T11:01:28.612416","CLASSIFICATION_TYPE":"U","MEAN_MOTION":15.34192892,"ECCENTRICITY":0.00048289,"INCLINATION":97.3899,"RA_OF_ASC_NODE":282.7422,"ARG_OF_PERICENTER":181.3644,"MEAN_ANOMALY":178.7586,"EPHEMERIS_TYPE":0,"NORAD_CAT_ID":62679,"ELEMENT_SET_NO":999,"REV_AT_EPOCH":14164,"BSTAR":0.00071897228,"MEAN_MOTION_DOT":0.0002377,"MEAN_MOTION_DDOT":0},{"OBJECT_NAME":"FLOCK 4G-18","OBJECT_ID":"2025-009BZ","EPOCH":"2026-07-20T17:46:59.229120","CLASSIFICATION_TYPE":"U","MEAN_MOTION":15.3244432,"ECCENTRICITY":0.00067116,"INCLINATION":97.3995,"RA_OF_ASC_NODE":283.4122,"ARG_OF_PERICENTER":192.0727,"MEAN_ANOMALY":168.0355,"EPHEMERIS_TYPE":0,"NORAD_CAT_ID":62680,"ELEMENT_SET_NO":999,"REV_AT_EPOCH":14167,"BSTAR":0.00074061437,"MEAN_MOTION_DOT":0.00023182,"MEAN_MOTION_DDOT":0},{"OBJECT_NAME":"FLOCK 4G-17","OBJECT_ID":"2025-009CA","EPOCH":"2026-07-20T22:45:50.321376","CLASSIFICATION_TYPE":"U","MEAN_MOTION":15.30155173,"ECCENTRICITY":0.00046482,"INCLINATION":97.391,"RA_OF_ASC_NODE":283.1467,"ARG_OF_PERICENTER":192.3835,"MEAN_ANOMALY":167.7292,"EPHEMERIS_TYPE":0,"NORAD_CAT_ID":62681,"ELEMENT_SET_NO":999,"REV_AT_EPOCH":14171,"BSTAR":0.00025858652,"MEAN_MOTION_DOT":0.00007471,"MEAN_MOTION_DDOT":0}]}
